NORAD_CAT_ID,OBJECT_NAME,OBJECT_TYPE,EPOCH,MEAN_MOTION,ECCENTRICITY,INCLINATION,RA_OF_ASC_NODE,ARG_OF_PERICENTER,MEAN_ANOMALY,BSTAR,MEAN_MOTION_DOT,MEAN_MOTION_DDOT,TLE_LINE0,TLE_LINE1,TLE_LINE2,SEMIMAJOR_AXIS,PERIOD,APOGEE,PERIGEE,DECAYED
52117.0,STARLINK-3738,PAYLOAD,2022-12-02 13:02:21,15.08848578,0.0002447,53.2184,35.3738,36.502,323.6139,-3.3899e-05,-8.28e-06,0.0,0 STARLINK-3738,1 52117U 22029AF  22336.54330756 -.00000828  00000-0 -33899-4 0  9996,2 52117  53.2184  35.3738 0002447  36.5020 323.6139 15.08848578 40671,6917.854,95.437,541.4119999999998,538.026,0.0
52117.0,STARLINK-3738,PAYLOAD,2022-12-02 14:37:45,15.08845645,0.0002561,53.2178,35.0756,33.2742,326.8411,-1.2831e-05,-4.93e-06,0.0,0 STARLINK-3738,1 52117U 22029AF  22336.60954898 -.00000493  00000-0 -12831-4 0  9993,2 52117  53.2178  35.0756 0002561  33.2742 326.8411 15.08845645 40684,6917.863,95.437,541.5,537.956,0.0
52117.0,STARLINK-3738,PAYLOAD,2022-12-03 12:53:08,15.08848011,0.0002509,53.2189,30.9116,33.9086,326.2066,-1.0975e-05,-4.63e-06,0.0,0 STARLINK-3738,1 52117U 22029AF  22337.53690672 -.00000463  00000-0 -10975-4 0  9997,2 52117  53.2189  30.9116 0002509  33.9086 326.2066 15.08848011 40826,6917.856,95.437,541.457,537.985,0.0
52117.0,STARLINK-3738,PAYLOAD,2022-12-03 16:03:55,15.08842499,0.0002555,53.2195,30.3173,33.445,326.6703,-5.7814e-05,-1.209e-05,0.0,0 STARLINK-3738,1 52117U 22029AF  22337.66939124 -.00001209  00000-0 -57814-4 0  9991,2 52117  53.2195  30.3173 0002555  33.4450 326.6703 15.08842499 40849,6917.873000000001,95.437,541.505,537.97,0.0
52117.0,STARLINK-3738,PAYLOAD,2022-12-04 12:43:55,15.08843635,0.0002473,53.2192,26.4521,30.0342,330.0792,8.3375e-05,1.039e-05,0.0,0 STARLINK-3738,1 52117U 22029AF  22338.53050449  .00001039  00000-0  83375-4 0  9992,2 52117  53.2192  26.4521 0002473  30.0342 330.0792 15.08843635 40975,6917.869000000002,95.437,541.445,538.023,0.0
52117.0,STARLINK-3738,PAYLOAD,2022-12-04 20:40:50,15.08848975,0.0002462,53.2192,24.9653,30.1322,329.9812,9.054e-05,1.153e-05,0.0,0 STARLINK-3738,1 52117U 22029AF  22338.86170065  .00001153  00000-0  90540-4 0  9994,2 52117  53.2192  24.9653 0002462  30.1322 329.9812 15.08848975 41020,6917.853,95.437,541.4209999999998,538.015,0.0
52117.0,STARLINK-3738,PAYLOAD,2022-12-05 09:23:55,15.08846387,0.0002486,53.2192,22.5865,31.7215,328.3926,0.00011292,1.51e-05,0.0,0 STARLINK-3738,1 52117U 22029AF  22339.39161992  .00001510  00000-0  11292-3 0  9995,2 52117  53.2192  22.5865 0002486  31.7215 328.3926 15.08846387 41106,6917.861,95.437,541.446,538.006,0.0
52117.0,STARLINK-3738,PAYLOAD,2022-12-05 20:31:37,15.08852627,0.0002489,53.2192,20.5049,32.9081,327.2065,0.00014258,1.982e-05,0.0,0 STARLINK-3738,1 52117U 22029AF  22339.85529398  .00001982  00000-0  14258-3 0  9992,2 52117  53.2192  20.5049 0002489  32.9081 327.2065 15.08852627 41178,6917.842,95.437,541.429,537.985,0.0
52117.0,STARLINK-3738,PAYLOAD,2022-12-06 09:14:42,15.08846479,0.0002566999999999,53.2186,18.1263,32.9465,327.1687,0.00024858,3.671e-05,0.0,0 STARLINK-3738,1 52117U 22029AF  22340.38521850  .00003671  00000-0  24858-3 0  9991,2 52117  53.2186  18.1263 0002567  32.9465 327.1687 15.08846479 41251,6917.861,95.437,541.501,537.95,0.0
52117.0,STARLINK-3738,PAYLOAD,2022-12-06 10:50:06,15.08844835,0.0002522,53.2189,17.8291,27.2697,332.8427,3.3619e-05,2.47e-06,0.0,0 STARLINK-3738,1 52117U 22029AF  22340.45145842  .00000247  00000-0  33619-4 0  9994,2 52117  53.2189  17.8291 0002522  27.2697 332.8427 15.08844835 41266,6917.866,95.437,541.475,537.986,0.0
52117.0,STARLINK-3738,PAYLOAD,2022-12-07 02:43:58,15.08802806,0.0002358,53.2194,14.8549,32.8109,327.3029,0.00037072,5.611e-05,0.0,0 STARLINK-3738,1 52117U 22029AF  22341.11387620  .00005611  00000-0  37072-3 0  9996,2 52117  53.2194  14.8549 0002358  32.8109 327.3029 15.08802806 41362,6917.994000000002,95.44,541.49,538.2280000000002,0.0
52117.0,STARLINK-3738,PAYLOAD,2022-12-07 09:05:31,15.08830482,0.0002602,53.2194,13.6662,27.0681,333.0447,-8.717200000000001e-05,-1.675e-05,0.0,0 STARLINK-3738,1 52117U 22029AF  22341.37883161 -.00001675  00000-0 -87172-4 0  9990,2 52117  53.2194  13.6662 0002602  27.0681 333.0447 15.08830482 41402,6917.909000000002,95.438,541.575,537.974,0.0
52117.0,STARLINK-3738,PAYLOAD,2022-12-07 12:16:17,15.08832775,0.0002631,53.2195,13.0717,28.7383,331.3753,-0.00011614,-2.136e-05,0.0,0 STARLINK-3738,1 52117U 22029AF  22341.51131178 -.00002136  00000-0 -11614-3 0  9990,2 52117  53.2195  13.0717 0002631  28.7383 331.3753 15.08832775 41427,6917.901999999999,95.438,541.5880000000002,537.947,0.0
52117.0,STARLINK-3738,PAYLOAD,2022-12-08 02:34:44,15.08845703,0.0002634,53.2192,10.3956,27.5974,332.5157,1.6198e-05,-3.1e-07,0.0,0 STARLINK-3738,1 52117U 22029AF  22342.10746105 -.00000031  00000-0  16198-4 0  9992,2 52117  53.2192  10.3956 0002634  27.5974 332.5157 15.08845703 41511,6917.863,95.437,541.55,537.906,0.0
52117.0,STARLINK-3738,PAYLOAD,2022-12-08 08:56:16,15.08843687,0.0002569,53.2191,9.2065,24.764,335.3475,9.3924e-05,1.207e-05,0.0,0 STARLINK-3738,1 52117U 22029AF  22342.37241898  .00001207  00000-0  93924-4 0  9997,2 52117  53.2191   9.2065 0002569  24.7640 335.3475 15.08843687 41551,6917.869000000002,95.437,541.511,537.957,0.0
52117.0,STARLINK-3738,PAYLOAD,2022-12-08 18:28:35,15.08848524,0.0002457,53.2198,7.4247,32.574,327.5404,-1.1755e-05,-4.76e-06,0.0,0 STARLINK-3738,1 52117U 22029AF  22342.76985952 -.00000476  00000-0 -11755-4 0  9997,2 52117  53.2198   7.4247 0002457  32.5740 327.5404 15.08848524 41611,6917.854,95.437,541.419,538.02,0.0
52117.0,STARLINK-3738,PAYLOAD,2022-12-09 05:36:17,15.08849177,0.0002428,53.2196,5.3437,34.7472,325.3678,0.00016838,2.393e-05,0.0,0 STARLINK-3738,1 52117U 22029AF  22343.23353438  .00002393  00000-0  16838-3 0  9992,2 52117  53.2196   5.3437 0002428  34.7472 325.3678 15.08849177 41682,6917.852,95.437,541.3969999999998,538.038,0.0
52117.0,STARLINK-3738,PAYLOAD,2022-12-09 18:19:24,15.08831348,0.0001825,53.2193,2.9647,350.9489,9.147,-0.00032875,-5.515e-05,0.0,0 STARLINK-3738,1 52117U 22029AF  22343.76347444 -.00005515  00000-0 -32875-3 0  9990,2 52117  53.2193   2.9647 0001825 350.9489   9.1470 15.08831348 41763,6917.906999999997,95.438,541.034,538.509,0.0
52117.0,STARLINK-3738,PAYLOAD,2022-12-10 10:13:16,15.08829898,0.0002545,53.2198,359.9884,29.4976,330.6159,-0.00012072,-2.209e-05,0.0,0 STARLINK-3738,1 52117U 22029AF  22344.42588250 -.00002209  00000-0 -12072-3 0  9990,2 52117  53.2198 359.9884 0002545  29.4976 330.6159 15.08829898 41869,6917.911,95.438,541.5369999999998,538.016,0.0
52117.0,STARLINK-3738,PAYLOAD,2022-12-11 02:07:07,15.08824059,0.0002101,53.2198,357.0148,359.8913,0.2078,0.00016718,2.372e-05,0.0,0 STARLINK-3738,1 52117U 22029AF  22345.08827864  .00002372  00000-0  16718-3 0  9990,2 52117  53.2198 357.0148 0002101 359.8913   0.2078 15.08824059 41965,6917.929,95.439,541.248,538.341,0.0
52117.0,STARLINK-3738,PAYLOAD,2022-12-11 08:28:39,15.08835458,0.0002783,53.2198,355.8255,33.3075,326.8092,0.00026995,4.01e-05,0.0,0 STARLINK-3738,1 52117U 22029AF  22345.35323543  .00004010  00000-0  26995-3 0  9994,2 52117  53.2198 355.8255 0002783  33.3075 326.8092 15.08835458 42003,6917.894,95.438,541.685,537.8340000000002,0.0
52117.0,STARLINK-3738,PAYLOAD,2022-12-12 08:19:27,15.08836503,0.0002803,53.2196,351.36400000000015,32.9841,327.1326,0.00017792,2.544e-05,0.0,0 STARLINK-3738,1 52117U 22029AF  22346.34684170  .00002544  00000-0  17792-3 0  9995,2 52117  53.2196 351.3640 0002803  32.9841 327.1326 15.08836503 42151,6917.891,95.438,541.695,537.817,0.0
52117.0,STARLINK-3738,PAYLOAD,2022-12-13 09:45:37,15.08843474,0.0002924,53.2195,346.6090000000001,31.3167,328.7999,2.7979e-05,1.57e-06,0.0,0 STARLINK-3738,1 52117U 22029AF  22347.40667871  .00000157  00000-0  27979-4 0  9999,2 52117  53.2195 346.6090 0002924  31.3167 328.7999 15.08843474 42310,6917.87,95.437,541.758,537.712,0.0
52117.0,STARLINK-3738,PAYLOAD,2022-12-13 11:21:00,15.08841513,0.0002689,53.2187,346.3093,31.427,328.6882,-2.2389e-05,-6.45e-06,0.0,0 STARLINK-3738,1 52117U 22029AF  22347.47291981 -.00000645  00000-0 -22389-4 0  9995,2 52117  53.2187 346.3093 0002689  31.4270 328.6882 15.08841513 42328,6917.876,95.437,541.601,537.881,0.0
52117.0,STARLINK-3738,PAYLOAD,2022-12-13 17:42:32,15.08844591,0.0002424,53.2186,345.1205,33.3262,326.7882,2.7843e-05,1.55e-06,0.0,0 STARLINK-3738,1 52117U 22029AF  22347.73787464  .00000155  00000-0  27843-4 0  9994,2 52117  53.2186 345.1205 0002424  33.3262 326.7882 15.08844591 42360,6917.866,95.437,541.408,538.054,0.0
52117.0,STARLINK-3738,PAYLOAD,2022-12-14 06:25:36,15.08854817,0.000255,53.2189,342.7403,31.5433,328.5712,0.00013575,1.874e-05,0.0,0 STARLINK-3738,1 52117U 22029AF  22348.26778372  .00001874  00000-0  13575-3 0  9996,2 52117  53.2189 342.7403 0002550  31.5433 328.5712 15.08854817 42449,6917.835,95.437,541.464,537.936,0.0
52117.0,STARLINK-3738,PAYLOAD,2022-12-14 22:19:28,15.08841179,0.0002686,53.2185,339.7679,29.9929,330.1216,3.7351e-05,3.06e-06,0.0,0 STARLINK-3738,1 52117U 22029AF  22348.93019358  .00000306  00000-0  37351-4 0  9990,2 52117  53.2185 339.7679 0002686  29.9929 330.1216 15.08841179 42543,6917.877,95.437,541.6,537.884,0.0
52117.0,STARLINK-3738,PAYLOAD,2022-12-15 09:27:10,15.0883606,0.000256,53.2194,337.6865,27.3796,332.733,6.6837e-05,7.75e-06,0.0,0 STARLINK-3738,1 52117U 22029AF  22349.39387623  .00000775  00000-0  66837-4 0  9995,2 52117  53.2194 337.6865 0002560  27.3796 332.7330 15.08836060 42618,6917.892,95.438,541.528,537.986,0.0
52117.0,STARLINK-3738,PAYLOAD,2022-12-16 02:56:25,15.08845686,0.0002716,53.2189,334.4158,29.0745,331.0398,2.0358e-05,3.6e-07,0.0,0 STARLINK-3738,1 52117U 22029AF  22350.12251161  .00000036  00000-0  20358-4 0  9993,2 52117  53.2189 334.4158 0002716  29.0745 331.0398 15.08845686 42720,6917.863,95.437,541.607,537.849,0.0
